{"type":"FeatureCollection","features":[{"type":"Feature","geometry":{"type":"Polygon","coordinates":[[[-58.333957,-34.758241],[-58.309779,-34.793387],[-58.3328,-34.805754],[-58.292471,-34.854868],[-58.396445,-34.909881],[-58.447753,-34.825989],[-58.333957,-34.758241]]]},"properties":{"id":"06028","nombre":"Almirante Brown","nombre_completo":"Partido de Almirante Brown","provincia":{"id":"06","nombre":"Buenos Aires","interseccion":0},"fuente":"IGN","categoria":"Partido","centroide":{"lon":-58.367372933,"lat":-34.835619113}}},{"type":"Feature","geometry":{"type":"Polygon","coordinates":[[[-58.338381,-34.633576],[-58.279639,-34.678642],[-58.333505,-34.726984],[-58.406505,-34.663512],[-58.338381,-34.633576]]]},"properties":{"id":"06035","nombre":"Avellaneda","nombre_completo":"Partido de Avellaneda","provincia":{"id":"06","nombre":"Buenos Aires","interseccion":0},"fuente":"IGN","categoria":"Partido","centroide":{"lon":-58.341144545,"lat":-34.678199308}}},{"type":"Feature","geometry":{"type":"Polygon","coordinates":[[[-58.191008,-34.738198],[-58.017688,-34.780318],[-58.211085,-34.951783],[-58.247414,-34.923592],[-58.179871,-34.866004],[-58.199915,-34.813772],[-58.267461,-34.773646],[-58.191008,-34.738198]]]},"properties":{"id":"06091","nombre":"Berazategui","nombre_completo":"Partido de Berazategui","provincia":{"id":"06","nombre":"Buenos Aires","interseccion":0},"fuente":"IGN","categoria":"Partido","centroide":{"lon":-58.155461509,"lat":-34.81824477}}},{"type":"Feature","geometry":{"type":"Polygon","coordinates":[[[-57.862163,-34.84109],[-57.751025,-34.914931],[-57.708224,-34.93035],[-57.752355,-34.970663],[-57.895903,-34.930436],[-57.931845,-34.903461],[-57.900545,-34.874856],[-57.876953,-34.827722],[-57.862163,-34.84109]]]},"properties":{"id":"06098","nombre":"Berisso","nombre_completo":"Partido de Berisso","provincia":{"id":"06","nombre":"Buenos Aires","interseccion":0},"fuente":"IGN","categoria":"Partido","centroide":{"lon":-57.828379772,"lat":-34.909355114}}},{"type":"Feature","geometry":{"type":"Polygon","coordinates":[[[-58.167037,-35.047736],[-58.177251,-35.057152],[-58.018072,-35.168111],[-58.077531,-35.220003],[-58.054086,-35.236827],[-57.968108,-35.159689],[-57.890143,-35.222141],[-58.035841,-35.343998],[-58.044821,-35.334563],[-58.138618,-35.420373],[-58.18685,-35.382581],[-58.219269,-35.408038],[-58.259555,-35.377109],[-58.246816,-35.365325],[-58.446903,-35.214031],[-58.35271,-35.137863],[-58.338844,-35.148527],[-58.161419,-34.971845],[-58.120261,-35.004572],[-58.167037,-35.047736]]]},"properties":{"id":"06119","nombre":"Brandsen","nombre_completo":"Partido de Brandsen","provincia":{"id":"06","nombre":"Buenos Aires","interseccion":0},"fuente":"IGN","categoria":"Partido","centroide":{"lon":-58.175233904,"lat":-35.222519799}}},{"type":"Feature","geometry":{"type":"Polygon","coordinates":[[[-58.749462,-33.95459],[-58.6753,-34.025467],[-58.80475,-34.087515],[-58.76385,-34.126474],[-58.7467,-34.165507],[-58.6914,-34.172432],[-58.712152,-34.248902],[-58.798512,-34.230221],[-58.778742,-34.286755],[-58.862832,-34.264175],[-58.880793,-34.297921],[-58.914931,-34.320724],[-58.91798,-34.352307],[-58.907739,-34.359949],[-58.919735,-34.381035],[-59.057152,-34.241501],[-59.105807,-34.213902],[-59.102264,-34.19745],[-58.973315,-34.129096],[-58.977497,-34.113277],[-59.009521,-34.099071],[-58.966046,-33.960581],[-58.77771,-33.942627],[-58.749462,-33.95459]]]},"properties":{"id":"06126","nombre":"Campana","nombre_completo":"Partido de Campana","provincia":{"id":"06","nombre":"Buenos Aires","interseccion":0},"fuente":"IGN","categoria":"Partido","centroide":{"lon":-58.882957379,"lat":-34.138388959}}},{"type":"Feature","geometry":{"type":"Polygon","coordinates":[[[-58.642944,-34.900637],[-58.599054,-34.942952],[-58.620151,-34.960741],[-58.55426,-35.00914],[-58.600439,-35.052424],[-58.57932,-35.068346],[-58.577919,-35.151662],[-58.46797,-35.238425],[-58.571654,-35.328204],[-58.525111,-35.366574],[-58.582098,-35.421437],[-58.663133,-35.354955],[-58.674154,-35.360382],[-58.707434,-35.335093],[-58.678324,-35.304472],[-58.746748,-35.252702],[-58.770771,-35.273978],[-58.894852,-35.176187],[-58.868975,-35.15357],[-58.934096,-35.103508],[-58.777483,-34.964965],[-58.791074,-34.955258],[-58.765341,-34.958997],[-58.726934,-34.923747],[-58.650331,-34.891087],[-58.642944,-34.900637]]]},"properties":{"id":"06134","nombre":"Cañuelas","nombre_completo":"Partido de Cañuelas","provincia":{"id":"06","nombre":"Buenos Aires","interseccion":0},"fuente":"IGN","categoria":"Partido","centroide":{"lon":-58.691094185,"lat":-35.144804496}}},{"type":"Feature","geometry":{"type":"Polygon","coordinates":[[[-58.016317,-34.780357],[-57.94734,-34.833477],[-57.876953,-34.827722],[-57.900545,-34.874856],[-57.931845,-34.903461],[-57.974604,-34.872367],[-57.990868,-34.879684],[-58.083632,-34.835145],[-58.016317,-34.780357]]]},"properties":{"id":"06245","nombre":"Ensenada","nombre_completo":"Partido de Ensenada","provincia":{"id":"06","nombre":"Buenos Aires","interseccion":0},"fuente":"IGN","categoria":"Partido","centroide":{"lon":-57.979109093,"lat":-34.842149742}}},{"type":"Feature","geometry":{"type":"Polygon","coordinates":[[[-58.712152,-34.248902],[-58.649515,-34.266598],[-58.680813,-34.347213],[-58.720619,-34.36329],[-58.705329,-34.372973],[-58.734634,-34.40246],[-58.70561,-34.439337],[-58.737313,-34.456416],[-58.777666,-34.404272],[-58.816989,-34.415404],[-58.900643,-34.308488],[-58.858387,-34.261979],[-58.776382,-34.285744],[-58.798512,-34.230221],[-58.712152,-34.248902]]]},"properties":{"id":"06252","nombre":"Escobar","nombre_completo":"Partido de Escobar","provincia":{"id":"06","nombre":"Buenos Aires","interseccion":0},"fuente":"IGN","categoria":"Partido","centroide":{"lon":-58.771178611,"lat":-34.328682834}}},{"type":"Feature","geometry":{"type":"Polygon","coordinates":[[[-58.500797,-34.722992],[-58.430528,-34.817248],[-58.447753,-34.825989],[-58.413042,-34.873576],[-58.49186,-34.927632],[-58.510333,-34.901681],[-58.502852,-34.854959],[-58.524502,-34.779139],[-58.520507,-34.741056],[-58.500797,-34.722992]]]},"properties":{"id":"06260","nombre":"Esteban Echeverría","nombre_completo":"Partido de Esteban Echeverría","provincia":{"id":"06","nombre":"Buenos Aires","interseccion":0},"fuente":"IGN","categoria":"Partido","centroide":{"lon":-58.476947929,"lat":-34.831213566}}},{"type":"Feature","geometry":{"type":"Polygon","coordinates":[[[-59.305387,-34.162043],[-59.103065,-34.200094],[-59.091502,-34.228217],[-59.057152,-34.241501],[-58.91853,-34.381908],[-58.918903,-34.413786],[-58.980257,-34.350643],[-58.993226,-34.358077],[-58.984011,-34.369004],[-58.992981,-34.379286],[-59.075912,-34.435339],[-59.097653,-34.464318],[-59.129594,-34.42061],[-59.310353,-34.289433],[-59.298677,-34.26429],[-59.375263,-34.238057],[-59.3666,-34.198921],[-59.324703,-34.163679],[-59.305387,-34.162043]]]},"properties":{"id":"06266","nombre":"Exaltación de la Cruz","nombre_completo":"Partido de Exaltación de la Cruz","provincia":{"id":"06","nombre":"Buenos Aires","interseccion":0},"fuente":"IGN","categoria":"Partido","centroide":{"lon":-59.155946132,"lat":-34.295134224}}},{"type":"Feature","geometry":{"type":"Polygon","coordinates":[[[-58.520507,-34.741056],[-58.524458,-34.779966],[-58.502852,-34.854959],[-58.510333,-34.901681],[-58.490155,-34.928838],[-58.55317,-34.976277],[-58.556271,-35.007048],[-58.620151,-34.960741],[-58.599054,-34.942952],[-58.650331,-34.891087],[-58.615506,-34.818527],[-58.568155,-34.758829],[-58.537507,-34.756953],[-58.520507,-34.741056]]]},"properties":{"id":"06270","nombre":"Ezeiza","nombre_completo":"Partido de Ezeiza","provincia":{"id":"06","nombre":"Buenos Aires","interseccion":0},"fuente":"IGN","categoria":"Partido","centroide":{"lon":-58.564701373,"lat":-34.876096844}}},{"type":"Feature","geometry":{"type":"Polygon","coordinates":[[[-58.267461,-34.773646],[-58.199915,-34.813772],[-58.179871,-34.866004],[-58.247414,-34.923592],[-58.211085,-34.951783],[-58.277172,-35.009418],[-58.300786,-34.971682],[-58.288205,-34.965044],[-58.316317,-34.926331],[-58.274607,-34.91706],[-58.317148,-34.868154],[-58.292471,-34.854868],[-58.332806,-34.805737],[-58.309779,-34.793387],[-58.304114,-34.801165],[-58.298454,-34.783439],[-58.267461,-34.773646]]]},"properties":{"id":"06274","nombre":"Florencio Varela","nombre_completo":"Partido de Florencio Varela","provincia":{"id":"06","nombre":"Buenos Aires","interseccion":0},"fuente":"IGN","categoria":"Partido","centroide":{"lon":-58.258554886,"lat":-34.877744824}}},{"type":"Feature","geometry":{"type":"Polygon","coordinates":[[[-59.03175,-34.763825],[-58.951498,-34.831176],[-58.936187,-34.817828],[-58.925109,-34.826312],[-58.84527,-34.891708],[-58.859086,-34.904052],[-58.777483,-34.964965],[-58.934096,-35.103508],[-59.014807,-35.041293],[-58.992581,-35.021429],[-59.218728,-34.852572],[-59.089806,-34.71714],[-59.03175,-34.763825]]]},"properties":{"id":"06329","nombre":"General Las Heras","nombre_completo":"Partido de General Las Heras","provincia":{"id":"06","nombre":"Buenos Aires","interseccion":0},"fuente":"IGN","categoria":"Partido","centroide":{"lon":-58.995446621,"lat":-34.909424378}}},{"type":"Feature","geometry":{"type":"Polygon","coordinates":[[[-58.909908,-34.54231],[-58.864113,-34.616882],[-58.884309,-34.627195],[-58.884468,-34.668796],[-58.863696,-34.683365],[-58.935344,-34.703731],[-58.998289,-34.762792],[-59.03175,-34.763825],[-59.091209,-34.719233],[-59.133682,-34.664055],[-59.056377,-34.616464],[-59.070986,-34.604392],[-58.986596,-34.577436],[-58.987192,-34.559859],[-58.954201,-34.543725],[-58.96189,-34.533741],[-58.92842,-34.516204],[-58.909908,-34.54231]]]},"properties":{"id":"06364","nombre":"General Rodríguez","nombre_completo":"Partido de General Rodríguez","provincia":{"id":"06","nombre":"Buenos Aires","interseccion":0},"fuente":"IGN","categoria":"Partido","centroide":{"lon":-58.987846798,"lat":-34.65061569}}},{"type":"Feature","geometry":{"type":"Polygon","coordinates":[[[-58.553764,-34.530205],[-58.537781,-34.544164],[-58.529811,-34.537332],[-58.50996,-34.569205],[-58.522972,-34.597563],[-58.562314,-34.591405],[-58.619241,-34.54673],[-58.601517,-34.521241],[-58.600303,-34.490354],[-58.553764,-34.530205]]]},"properties":{"id":"06371","nombre":"General San Martín","nombre_completo":"Partido General San Martín","provincia":{"id":"06","nombre":"Buenos Aires","interseccion":0},"fuente":"IGN","categoria":"Partido","centroide":{"lon":-58.564282176,"lat":-34.552771918}}},{"type":"Feature","geometry":{"type":"Polygon","coordinates":[[[-58.642231,-34.566309],[-58.616028,-34.588705],[-58.621808,-34.633151],[-58.653486,-34.631612],[-58.693934,-34.593742],[-58.642231,-34.566309]]]},"properties":{"id":"06408","nombre":"Hurlingham","nombre_completo":"Partido de Hurlingham","provincia":{"id":"06","nombre":"Buenos Aires","interseccion":0},"fuente":"IGN","categoria":"Partido","centroide":{"lon":-58.649525387,"lat":-34.599283055}}},{"type":"Feature","geometry":{"type":"Polygon","coordinates":[[[-58.682222,-34.603234],[-58.653486,-34.631612],[-58.667381,-34.685988],[-58.729025,-34.634784],[-58.709898,-34.60151],[-58.693934,-34.593742],[-58.682222,-34.603234]]]},"properties":{"id":"06410","nombre":"Ituzaingó","nombre_completo":"Partido de Ituzaingó","provincia":{"id":"06","nombre":"Buenos Aires","interseccion":0},"fuente":"IGN","categoria":"Partido","centroide":{"lon":-58.688759516,"lat":-34.636071612}}},{"type":"Feature","geometry":{"type":"Polygon","coordinates":[[[-58.78948,-34.473851],[-58.720899,-34.518234],[-58.776028,-34.557058],[-58.823584,-34.508215],[-58.811153,-34.485744],[-58.821687,-34.451956],[-58.78948,-34.473851]]]},"properties":{"id":"06412","nombre":"José C. Paz","nombre_completo":"Partido de José C. Paz","provincia":{"id":"06","nombre":"Buenos Aires","interseccion":0},"fuente":"IGN","categoria":"Partido","centroide":{"lon":-58.777634598,"lat":-34.511853163}}},{"type":"Feature","geometry":{"type":"Polygon","coordinates":[[[-58.552207,-34.637594],[-58.461655,-34.705135],[-58.483902,-34.732136],[-58.504473,-34.721278],[-58.537507,-34.756953],[-58.566983,-34.757761],[-58.615506,-34.818527],[-58.646857,-34.889685],[-58.694106,-34.912195],[-58.762494,-34.858422],[-58.749862,-34.847367],[-58.773244,-34.827613],[-58.707051,-34.811268],[-58.750247,-34.777588],[-58.728396,-34.759307],[-58.703884,-34.778711],[-58.681935,-34.7595],[-58.67361,-34.766327],[-58.657915,-34.753297],[-58.675462,-34.739295],[-58.636154,-34.715029],[-58.639379,-34.700621],[-58.581876,-34.64317],[-58.552207,-34.637594]]]},"properties":{"id":"06427","nombre":"La Matanza","nombre_completo":"Partido de La Matanza","provincia":{"id":"06","nombre":"Buenos Aires","interseccion":0},"fuente":"IGN","categoria":"Partido","centroide":{"lon":-58.625445695,"lat":-34.770348102}}},{"type":"Feature","geometry":{"type":"MultiPolygon","coordinates":[[[[-57.996665,-34.875349],[-57.974604,-34.872367],[-57.895903,-34.930436],[-57.752355,-34.970663],[-58.054086,-35.236827],[-58.077531,-35.220003],[-58.018072,-35.168111],[-58.177251,-35.057152],[-58.12038,-35.004379],[-58.161419,-34.971845],[-58.246487,-35.048357],[-58.288398,-35.017265],[-58.083632,-34.835145],[-57.996665,-34.875349]]],[[[-58.248007,-34.174939],[-58.243062,-34.186941],[-58.254986,-34.190456],[-58.258266,-34.181706],[-58.248007,-34.174939]]]]},"properties":{"id":"06441","nombre":"La Plata","nombre_completo":"Partido de La Plata","provincia":{"id":"06","nombre":"Buenos Aires","interseccion":0},"fuente":"IGN","categoria":"Partido","centroide":{"lon":-58.017777789,"lat":-35.003847016}}},{"type":"Feature","geometry":{"type":"Polygon","coordinates":[[[-58.408451,-34.660135],[-58.333505,-34.726984],[-58.347314,-34.73984],[-58.413453,-34.732627],[-58.446915,-34.688777],[-58.408451,-34.660135]]]},"properties":{"id":"06434","nombre":"Lanús","nombre_completo":"Partido de Lanús","provincia":{"id":"06","nombre":"Buenos Aires","interseccion":0},"fuente":"IGN","categoria":"Partido","centroide":{"lon":-58.394696505,"lat":-34.705654244}}},{"type":"Feature","geometry":{"type":"Polygon","coordinates":[[[-58.434443,-34.705195],[-58.413269,-34.732865],[-58.346962,-34.739344],[-58.336639,-34.754401],[-58.430528,-34.817248],[-58.500797,-34.722992],[-58.483902,-34.732136],[-58.446915,-34.688777],[-58.434443,-34.705195]]]},"properties":{"id":"06490","nombre":"Lomas de Zamora","nombre_completo":"Partido de Lomas de Zamora","provincia":{"id":"06","nombre":"Buenos Aires","interseccion":0},"fuente":"IGN","categoria":"Partido","centroide":{"lon":-58.42409543,"lat":-34.754967955}}},{"type":"Feature","geometry":{"type":"Polygon","coordinates":[[[-59.177592,-34.38852],[-59.129594,-34.42061],[-59.097653,-34.464318],[-59.056272,-34.428206],[-58.954201,-34.543725],[-58.987192,-34.559859],[-58.986596,-34.577436],[-59.070986,-34.604392],[-59.056377,-34.616464],[-59.136081,-34.65886],[-59.091209,-34.719233],[-59.164978,-34.803469],[-59.255899,-34.685583],[-59.241284,-34.677329],[-59.281227,-34.625847],[-59.262446,-34.620116],[-59.338525,-34.508444],[-59.217716,-34.446564],[-59.239323,-34.413704],[-59.196741,-34.373654],[-59.177592,-34.38852]]]},"properties":{"id":"06497","nombre":"Luján","nombre_completo":"Partido de Luján","provincia":{"id":"06","nombre":"Buenos Aires","interseccion":0},"fuente":"IGN","categoria":"Partido","centroide":{"lon":-59.15845644,"lat":-34.56732242}}},{"type":"Feature","geometry":{"type":"Polygon","coordinates":[[[-58.684803,-34.466151],[-58.646591,-34.501384],[-58.701269,-34.532748],[-58.784541,-34.476066],[-58.705563,-34.439311],[-58.684803,-34.466151]]]},"properties":{"id":"06515","nombre":"Malvinas Argentinas","nombre_completo":"Partido de Malvinas Argentinas","provincia":{"id":"06","nombre":"Buenos Aires","interseccion":0},"fuente":"IGN","categoria":"Partido","centroide":{"lon":-58.712137242,"lat":-34.487311344}}},{"type":"Feature","geometry":{"type":"Polygon","coordinates":[[[-58.860294,-34.685206],[-58.860894,-34.701334],[-58.707051,-34.811268],[-58.774041,-34.828664],[-58.749862,-34.847367],[-58.762494,-34.858422],[-58.694106,-34.912195],[-58.765341,-34.958997],[-58.791141,-34.955317],[-58.859086,-34.904052],[-58.84527,-34.891708],[-58.936187,-34.817828],[-58.951498,-34.831176],[-59.03373,-34.766925],[-58.998289,-34.762792],[-58.935344,-34.703731],[-58.860294,-34.685206]]]},"properties":{"id":"06525","nombre":"Marcos Paz","nombre_completo":"Partido de Marcos Paz","provincia":{"id":"06","nombre":"Buenos Aires","interseccion":0},"fuente":"IGN","categoria":"Partido","centroide":{"lon":-58.847831205,"lat":-34.814002965}}},{"type":"Feature","geometry":{"type":"Polygon","coordinates":[[[-58.698293,-34.660258],[-58.636154,-34.715029],[-58.675462,-34.739295],[-58.657915,-34.753297],[-58.703884,-34.778711],[-58.728396,-34.759307],[-58.750247,-34.777588],[-58.864295,-34.698422],[-58.860294,-34.685206],[-58.818311,-34.685589],[-58.757549,-34.660482],[-58.729025,-34.634784],[-58.698293,-34.660258]]]},"properties":{"id":"06539","nombre":"Merlo","nombre_completo":"Partido de Merlo","provincia":{"id":"06","nombre":"Buenos Aires","interseccion":0},"fuente":"IGN","categoria":"Partido","centroide":{"lon":-58.741958414,"lat":-34.711003278}}},{"type":"Feature","geometry":{"type":"Polygon","coordinates":[[[-58.811087,-34.521046],[-58.713374,-34.605638],[-58.731742,-34.642561],[-58.757549,-34.660482],[-58.818311,-34.685589],[-58.860294,-34.685206],[-58.884468,-34.668796],[-58.884309,-34.627195],[-58.864113,-34.616882],[-58.890951,-34.579812],[-58.847501,-34.549171],[-58.823771,-34.508367],[-58.811087,-34.521046]]]},"properties":{"id":"06560","nombre":"Moreno","nombre_completo":"Partido de Moreno","provincia":{"id":"06","nombre":"Buenos Aires","interseccion":0},"fuente":"IGN","categoria":"Partido","centroide":{"lon":-58.810898508,"lat":-34.610680786}}},{"type":"Feature","geometry":{"type":"Polygon","coordinates":[[[-58.616028,-34.588705],[-58.556107,-34.634703],[-58.581876,-34.64317],[-58.640974,-34.704543],[-58.667381,-34.685988],[-58.653486,-34.631612],[-58.620379,-34.631419],[-58.616028,-34.588705]]]},"properties":{"id":"06568","nombre":"Morón","nombre_completo":"Partido de Morón","provincia":{"id":"06","nombre":"Buenos Aires","interseccion":0},"fuente":"IGN","categoria":"Partido","centroide":{"lon":-58.619831711,"lat":-34.649386163}}},{"type":"Feature","geometry":{"type":"Polygon","coordinates":[[[-58.26292,-34.687572],[-58.194645,-34.735695],[-58.298454,-34.783439],[-58.304114,-34.801165],[-58.346962,-34.739344],[-58.279639,-34.678642],[-58.26292,-34.687572]]]},"properties":{"id":"06658","nombre":"Quilmes","nombre_completo":"Partido de Quilmes","provincia":{"id":"06","nombre":"Buenos Aires","interseccion":0},"fuente":"IGN","categoria":"Partido","centroide":{"lon":-58.276858021,"lat":-34.734970799}}},{"type":"Feature","geometry":{"type":"Polygon","coordinates":[[[-58.901265,-34.311097],[-58.816989,-34.415404],[-58.777666,-34.404272],[-58.737313,-34.456416],[-58.784689,-34.476157],[-58.821687,-34.451956],[-58.813519,-34.491148],[-58.847501,-34.549171],[-58.885066,-34.577051],[-58.92842,-34.516204],[-58.96189,-34.533741],[-59.056272,-34.428206],[-58.992981,-34.379286],[-58.984011,-34.369004],[-58.993226,-34.358077],[-58.980257,-34.350643],[-58.919672,-34.414768],[-58.921214,-34.371547],[-58.907739,-34.359949],[-58.917353,-34.328004],[-58.901265,-34.311097]]]},"properties":{"id":"06638","nombre":"Pilar","nombre_completo":"Partido de Pilar","provincia":{"id":"06","nombre":"Buenos Aires","interseccion":0},"fuente":"IGN","categoria":"Partido","centroide":{"lon":-58.90333273,"lat":-34.448164005}}},{"type":"Feature","geometry":{"type":"Polygon","coordinates":[[[-58.404666,-34.898557],[-58.396445,-34.909881],[-58.31246,-34.874838],[-58.274607,-34.91706],[-58.37762,-34.950493],[-58.468702,-35.011275],[-58.463054,-34.951454],[-58.49186,-34.927632],[-58.413042,-34.873576],[-58.404666,-34.898557]]]},"properties":{"id":"06648","nombre":"Presidente Perón","nombre_completo":"Partido de Presidente Perón","provincia":{"id":"06","nombre":"Buenos Aires","interseccion":0},"fuente":"IGN","categoria":"Partido","centroide":{"lon":-58.398084211,"lat":-34.929847841}}},{"type":"Feature","geometry":{"type":"MultiPolygon","coordinates":[[[[-58.363524,-34.022061],[-58.344989,-34.038397],[-58.336741,-34.084349],[-58.354147,-34.216467],[-58.392546,-34.233562],[-58.381322,-34.239948],[-58.389402,-34.262592],[-58.424319,-34.281547],[-58.459577,-34.324787],[-58.712152,-34.248902],[-58.6914,-34.172432],[-58.7467,-34.165507],[-58.76385,-34.126474],[-58.80475,-34.087515],[-58.6753,-34.025467],[-58.60717,-34.037871],[-58.463196,-34.001892],[-58.363524,-34.022061]]],[[[-58.54505,-34.430729],[-58.516165,-34.443321],[-58.600303,-34.490354],[-58.595171,-34.448343],[-58.557947,-34.424092],[-58.54505,-34.430729]]],[[[-58.283791,-34.209904],[-58.29243,-34.231405],[-58.297714,-34.218569],[-58.32991,-34.205948],[-58.312261,-34.186266],[-58.283791,-34.209904]]],[[[-58.320007,-34.176535],[-58.317273,-34.181923],[-58.334471,-34.195255],[-58.333232,-34.178751],[-58.320007,-34.176535]]],[[[-58.3371,-34.23725],[-58.348865,-34.221686],[-58.338796,-34.214272],[-58.332268,-34.221354],[-58.3371,-34.23725]]],[[[-58.309876,-34.229397],[-58.329902,-34.231713],[-58.330799,-34.213705],[-58.316975,-34.225586],[-58.309876,-34.229397]]],[[[-58.32783,-34.163089],[-58.334967,-34.173894],[-58.342104,-34.151294],[-58.331795,-34.15392],[-58.32783,-34.163089]]],[[[-58.319441,-34.215349],[-58.306962,-34.217964],[-58.309502,-34.226781],[-58.330425,-34.210566],[-58.319441,-34.215349]]],[[[-58.321783,-34.1732],[-58.332736,-34.177561],[-58.334389,-34.177211],[-58.325852,-34.163311],[-58.321783,-34.1732]]],[[[-58.252931,-34.206825],[-58.250299,-34.214349],[-58.253172,-34.216981],[-58.260103,-34.208364],[-58.252931,-34.206825]]],[[[-58.261777,-34.230501],[-58.264544,-34.236721],[-58.271034,-34.225774],[-58.268046,-34.224745],[-58.261777,-34.230501]]],[[[-58.325045,-34.249087],[-58.330724,-34.246696],[-58.330052,-34.241689],[-58.323551,-34.244977],[-58.325045,-34.249087]]],[[[-58.339031,-34.149832],[-58.340865,-34.149485],[-58.336553,-34.138977],[-58.334273,-34.145966],[-58.339031,-34.149832]]],[[[-58.328109,-34.234254],[-58.324298,-34.235449],[-58.32908,-34.238962],[-58.3305,-34.234179],[-58.328109,-34.234254]]],[[[-58.29549,-34.234315],[-58.297297,-34.234609],[-58.298127,-34.231977],[-58.294649,-34.231835],[-58.29549,-34.234315]]],[[[-58.323327,-34.23657],[-58.319291,-34.237318],[-58.319217,-34.238663],[-58.325718,-34.237766],[-58.323327,-34.23657]]],[[[-58.329826,-34.152161],[-58.332439,-34.149683],[-58.332279,-34.146843],[-58.330457,-34.148196],[-58.329826,-34.152161]]]]},"properties":{"id":"06749","nombre":"San Fernando","nombre_completo":"Partido de San Fernando","provincia":{"id":"06","nombre":"Buenos Aires","interseccion":0},"fuente":"IGN","categoria":"Partido","centroide":{"lon":-58.534581657,"lat":-34.155836112}}},{"type":"Feature","geometry":{"type":"Polygon","coordinates":[[[-58.514155,-34.443526],[-58.4794,-34.489761],[-58.553764,-34.530205],[-58.600303,-34.490354],[-58.514155,-34.443526]]]},"properties":{"id":"06756","nombre":"San Isidro","nombre_completo":"Partido de San Isidro","provincia":{"id":"06","nombre":"Buenos Aires","interseccion":0},"fuente":"IGN","categoria":"Partido","centroide":{"lon":-58.537209077,"lat":-34.486892954}}},{"type":"Feature","geometry":{"type":"Polygon","coordinates":[[[-58.612095,-34.52986],[-58.617681,-34.546904],[-58.713374,-34.605638],[-58.77694,-34.557917],[-58.720899,-34.518234],[-58.689134,-34.530159],[-58.646591,-34.501384],[-58.612095,-34.52986]]]},"properties":{"id":"06760","nombre":"San Miguel","nombre_completo":"Partido de San Miguel","provincia":{"id":"06","nombre":"Buenos Aires","interseccion":0},"fuente":"IGN","categoria":"Partido","centroide":{"lon":-58.691783523,"lat":-34.552134349}}},{"type":"Feature","geometry":{"type":"Polygon","coordinates":[[[-58.316317,-34.926331],[-58.288205,-34.965044],[-58.300786,-34.971682],[-58.277172,-35.009418],[-58.288398,-35.017265],[-58.236268,-35.058275],[-58.338844,-35.148527],[-58.35271,-35.137863],[-58.414816,-35.185434],[-58.46797,-35.238425],[-58.577919,-35.151662],[-58.57932,-35.068346],[-58.600439,-35.052424],[-58.554385,-35.011431],[-58.55317,-34.976277],[-58.491914,-34.930168],[-58.463054,-34.951454],[-58.468702,-35.011275],[-58.430381,-34.978061],[-58.408331,-34.97787],[-58.394616,-34.958878],[-58.316317,-34.926331]]]},"properties":{"id":"06778","nombre":"San Vicente","nombre_completo":"Partido de San Vicente","provincia":{"id":"06","nombre":"Buenos Aires","interseccion":0},"fuente":"IGN","categoria":"Partido","centroide":{"lon":-58.43181206,"lat":-35.071508717}}},{"type":"Feature","geometry":{"type":"Polygon","coordinates":[[[-58.472022,-34.32351],[-58.436937,-34.300883],[-58.44139,-34.386659],[-58.489199,-34.44407],[-58.523514,-34.443781],[-58.557947,-34.424092],[-58.595171,-34.448343],[-58.606343,-34.534542],[-58.67821,-34.474651],[-58.734634,-34.40246],[-58.705329,-34.372973],[-58.720619,-34.36329],[-58.679814,-34.345687],[-58.649515,-34.266598],[-58.472022,-34.32351]]]},"properties":{"id":"06805","nombre":"Tigre","nombre_completo":"Partido de Tigre","provincia":{"id":"06","nombre":"Buenos Aires","interseccion":0},"fuente":"IGN","categoria":"Partido","centroide":{"lon":-58.588173873,"lat":-34.382019908}}},{"type":"Feature","geometry":{"type":"Polygon","coordinates":[[[-58.619897,-34.546574],[-58.562314,-34.591405],[-58.522972,-34.597563],[-58.529211,-34.65464],[-58.646336,-34.562968],[-58.619897,-34.546574]]]},"properties":{"id":"06840","nombre":"Tres de Febrero","nombre_completo":"Partido de Tres de Febrero","provincia":{"id":"06","nombre":"Buenos Aires","interseccion":0},"fuente":"IGN","categoria":"Partido","centroide":{"lon":-58.579188386,"lat":-34.596010074}}},{"type":"Feature","geometry":{"type":"Polygon","coordinates":[[[-58.479285,-34.494397],[-58.459564,-34.527784],[-58.500804,-34.549533],[-58.50996,-34.569205],[-58.529811,-34.537332],[-58.537781,-34.544164],[-58.553764,-34.530205],[-58.479285,-34.494397]]]},"properties":{"id":"06861","nombre":"Vicente López","nombre_completo":"Partido de Vicente López","provincia":{"id":"06","nombre":"Buenos Aires","interseccion":0},"fuente":"IGN","categoria":"Partido","centroide":{"lon":-58.504486513,"lat":-34.526531424}}},{"type":"Feature","geometry":{"type":"Polygon","coordinates":[[[-59.168091,-33.809387],[-59.130676,-33.847717],[-59.055481,-33.832397],[-59.020482,-33.848942],[-58.992881,-33.841804],[-58.97789,-33.870357],[-58.89978,-33.890991],[-58.868435,-33.936506],[-58.837201,-33.953751],[-58.966046,-33.960581],[-59.009521,-34.099071],[-58.977497,-34.113277],[-58.973315,-34.129096],[-59.102904,-34.200122],[-59.31234,-34.161043],[-59.279567,-34.145967],[-59.2662,-34.091783],[-59.302504,-34.064062],[-59.308491,-34.019271],[-59.347137,-33.935033],[-59.309814,-33.924122],[-59.260541,-33.941577],[-59.22838,-33.925027],[-59.240136,-33.896258],[-59.30209,-33.846625],[-59.276361,-33.820257],[-59.168091,-33.809387]]]},"properties":{"id":"06882","nombre":"Zárate","nombre_completo":"Partido de Zárate","provincia":{"id":"06","nombre":"Buenos Aires","interseccion":0},"fuente":"IGN","categoria":"Partido","centroide":{"lon":-59.1282153,"lat":-33.997089798}}},{"type":"Feature","geometry":{"type":"Polygon","coordinates":[[[-58.455351,-34.527763],[-58.450853,-34.532302],[-58.448682,-34.53734],[-58.444042,-34.536162],[-58.440844,-34.539867],[-58.436033,-34.540453],[-58.431457,-34.544607],[-58.429611,-34.548884],[-58.424208,-34.549268],[-58.425605,-34.552265],[-58.411141,-34.557385],[-58.409435,-34.556678],[-58.410127,-34.558127],[-58.403654,-34.563754],[-58.396836,-34.565123],[-58.397444,-34.566457],[-58.392946,-34.57202],[-58.383416,-34.576173],[-58.391296,-34.570377],[-58.381417,-34.568342],[-58.378155,-34.572782],[-58.383587,-34.573389],[-58.375521,-34.573917],[-58.370773,-34.576623],[-58.376099,-34.577522],[-58.374343,-34.578714],[-58.36789,-34.578229],[-58.36532,-34.579628],[-58.370631,-34.580592],[-58.369039,-34.581741],[-58.361636,-34.581156],[-58.361415,-34.582976],[-58.366162,-34.583533],[-58.359909,-34.584118],[-58.359666,-34.585938],[-58.363692,-34.586231],[-58.363557,-34.58748],[-58.359473,-34.588087],[-58.367896,-34.590026],[-58.364348,-34.594259],[-58.367332,-34.591418],[-58.366368,-34.593017],[-58.367874,-34.592053],[-58.367189,-34.593324],[-58.36913,-34.594052],[-58.367924,-34.597535],[-58.363848,-34.597171],[-58.36415,-34.59522],[-58.356655,-34.594877],[-58.346847,-34.602358],[-58.346019,-34.60647],[-58.340905,-34.610477],[-58.339785,-34.614846],[-58.339881,-34.616274],[-58.345205,-34.61762],[-58.345262,-34.618748],[-58.338366,-34.618705],[-58.336982,-34.622446],[-58.340337,-34.62316],[-58.335146,-34.627067],[-58.339366,-34.628984],[-58.342464,-34.626158],[-58.34422,-34.626343],[-58.341322,-34.628984],[-58.345325,-34.628666],[-58.343101,-34.630238],[-58.345153,-34.632266],[-58.357051,-34.639404],[-58.357455,-34.645415],[-58.3684,-34.651067],[-58.369662,-34.654038],[-58.374052,-34.657194],[-58.384555,-34.657986],[-58.39273,-34.662667],[-58.413421,-34.658811],[-58.423795,-34.662247],[-58.461206,-34.705412],[-58.52888,-34.654627],[-58.531512,-34.615514],[-58.50077,-34.54946],[-58.463532,-34.533399],[-58.458347,-34.526668],[-58.455351,-34.527763]]]},"properties":{"id":"02","nombre":"Ciudad Autónoma de Buenos Aires","nombre_completo":"Ciudad Autónoma de Buenos Aires","fuente":"IGN","categoria":"Ciudad Autónoma","centroide":{"lon":-58.445876325,"lat":-34.614442065},"iso_id":"AR-C","iso_nombre":"Ciudad Autónoma de Buenos Aires"}}]}