{
  "type": "FeatureCollection",
  "features": [
    {
      "type": "Feature",
      "geometry": {
        "type": "MultiPolygon",
        "coordinates": [
          [
            [
              [
                -59.4082438,
                -33.8611688
              ],
              [
                -59.4099257,
                -33.8520623
              ],
              [
                -59.4092592,
                -33.835321
              ],
              [
                -59.4048932,
                -33.8189715
              ],
              [
                -59.3969807,
                -33.803578
              ],
              [
                -59.3857961,
                -33.7896714
              ],
              [
                -59.3600606,
                -33.763321
              ],
              [
                -59.345504,
                -33.7510308
              ],
              [
                -59.32841,
                -33.7412854
              ],
              [
                -59.3094065,
                -33.7344425
              ],
              [
                -59.2891907,
                -33.7307532
              ],
              [
                -59.181033,
                -33.7198898
              ],
              [
                -59.1593343,
                -33.7195362
              ],
              [
                -59.1379885,
                -33.7228153
              ],
              [
                -59.1178572,
                -33.729595
              ],
              [
                -59.0997532,
                -33.7396017
              ],
              [
                -59.0910776,
                -33.7468561
              ],
              [
                -59.0811184,
                -33.7448238
              ],
              [
                -59.0609826,
                -33.7423622
              ],
              [
                -59.0406514,
                -33.7430991
              ],
              [
                -59.0208457,
                -33.7470084
              ],
              [
                -59.0059945,
                -33.7525592
              ],
              [
                -59.0028311,
                -33.7520334
              ],
              [
                -58.9803827,
                -33.7522553
              ],
              [
                -58.9584731,
                -33.7563479
              ],
              [
                -58.9380476,
                -33.7641347
              ],
              [
                -58.9199881,
                -33.7752798
              ],
              [
                -58.9050753,
                -33.7893022
              ],
              [
                -58.9003046,
                -33.7962933
              ],
              [
                -58.8672112,
                -33.8050262
              ],
              [
                -58.8487411,
                -33.8115237
              ],
              [
                -58.8320238,
                -33.820756
              ],
              [
                -58.8176342,
                -33.8324058
              ],
              [
                -58.8060679,
                -33.8460731
              ],
              [
                -58.8005609,
                -33.8540606
              ],
              [
                -58.7900287,
                -33.8530536
              ],
              [
                -58.7690098,
                -33.8527586
              ],
              [
                -58.748319,
                -33.8558608
              ],
              [
                -58.7287368,
                -33.8622435
              ],
              [
                -58.7005074,
                -33.8741948
              ],
              [
                -58.6829998,
                -33.8834619
              ],
              [
                -58.6679315,
                -33.8953448
              ],
              [
                -58.6172554,
                -33.9437473
              ],
              [
                -58.6114112,
                -33.9448109
              ],
              [
                -58.49436,
                -33.9155433
              ],
              [
                -58.4756323,
                -33.9123202
              ],
              [
                -58.456517,
                -33.9118943
              ],
              [
                -58.4376096,
                -33.9142791
              ],
              [
                -58.3380323,
                -33.9344253
              ],
              [
                -58.3184335,
                -33.940085
              ],
              [
                -58.3004873,
                -33.9487555
              ],
              [
                -58.2848522,
                -33.960119
              ],
              [
                -58.2663148,
                -33.9764433
              ],
              [
                -58.2529321,
                -33.9909143
              ],
              [
                -58.2433212,
                -34.0073343
              ],
              [
                -58.237878,
                -34.0250303
              ],
              [
                -58.229573,
                -34.0709765
              ],
              [
                -58.2291853,
                -34.086544
              ],
              [
                -58.2175361,
                -34.0883994
              ],
              [
                -58.1983234,
                -34.094787
              ],
              [
                -58.1809159,
                -34.1040931
              ],
              [
                -58.1659472,
                -34.1159794
              ],
              [
                -58.1539625,
                -34.1300138
              ],
              [
                -58.1453995,
                -34.1456857
              ],
              [
                -58.1404415,
                -34.1576839
              ],
              [
                -58.1355556,
                -34.1747614
              ],
              [
                -58.134742,
                -34.192302
              ],
              [
                -58.138034,
                -34.2096412
              ],
              [
                -58.1424304,
                -34.2196011
              ],
              [
                -58.1425871,
                -34.2255363
              ],
              [
                -58.1475348,
                -34.2434229
              ],
              [
                -58.1567437,
                -34.2601064
              ],
              [
                -58.1616542,
                -34.2656545
              ],
              [
                -58.1626646,
                -34.2679319
              ],
              [
                -58.1718258,
                -34.2836724
              ],
              [
                -58.1844775,
                -34.2976485
              ],
              [
                -58.200145,
                -34.3093338
              ],
              [
                -58.218239,
                -34.3182881
              ],
              [
                -58.2380782,
                -34.3241741
              ],
              [
                -58.2589151,
                -34.3267699
              ],
              [
                -58.2696627,
                -34.3263659
              ],
              [
                -58.2728194,
                -34.328153
              ],
              [
                -58.2921819,
                -34.3350315
              ],
              [
                -58.3127822,
                -34.3386793
              ],
              [
                -58.3301132,
                -34.3389097
              ],
              [
                -58.3327261,
                -34.3904932
              ],
              [
                -58.3354683,
                -34.4071683
              ],
              [
                -58.3419033,
                -34.4231303
              ],
              [
                -58.3518088,
                -34.4378224
              ],
              [
                -58.3749943,
                -34.4657115
              ],
              [
                -58.374965,
                -34.4658
              ],
              [
                -58.374899,
                -34.4659116
              ],
              [
                -58.374283,
                -34.4661826
              ],
              [
                -58.3590998,
                -34.477138
              ],
              [
                -58.3534209,
                -34.4793483
              ],
              [
                -58.347142,
                -34.4832216
              ],
              [
                -58.3399891,
                -34.4849516
              ],
              [
                -58.3197681,
                -34.494001
              ],
              [
                -58.3043216,
                -34.5049221
              ],
              [
                -58.292496,
                -34.5114651
              ],
              [
                -58.277433,
                -34.5239181
              ],
              [
                -58.2655798,
                -34.5385571
              ],
              [
                -58.2645525,
                -34.5405979
              ],
              [
                -58.2640348,
                -34.5412343
              ],
              [
                -58.26074,
                -34.5476852
              ],
              [
                -58.2572468,
                -34.5510037
              ],
              [
                -58.2531421,
                -34.557275
              ],
              [
                -58.2516467,
                -34.5587068
              ],
              [
                -58.2409326,
                -34.5744954
              ],
              [
                -58.234946,
                -34.5899287
              ],
              [
                -58.2124358,
                -34.6071802
              ],
              [
                -58.2037132,
                -34.6118367
              ],
              [
                -58.1920854,
                -34.61899
              ],
              [
                -58.1379743,
                -34.6571133
              ],
              [
                -57.9869413,
                -34.6937952
              ],
              [
                -57.985585,
                -34.6942516
              ],
              [
                -57.9769499,
                -34.6962478
              ],
              [
                -57.9583039,
                -34.7039552
              ],
              [
                -57.9417679,
                -34.7144472
              ],
              [
                -57.9089325,
                -34.7397294
              ],
              [
                -57.8877705,
                -34.7379944
              ],
              [
                -57.8674719,
                -34.7378914
              ],
              [
                -57.8474996,
                -34.7408874
              ],
              [
                -57.8285412,
                -34.7468792
              ],
              [
                -57.8112497,
                -34.7556607
              ],
              [
                -57.7962215,
                -34.7669292
              ],
              [
                -57.7870467,
                -34.7752152
              ],
              [
                -57.6938019,
                -34.8371369
              ],
              [
                -57.6644143,
                -34.8477192
              ],
              [
                -57.6463403,
                -34.8559784
              ],
              [
                -57.6304691,
                -34.8668903
              ],
              [
                -57.6173668,
                -34.8800662
              ],
              [
                -57.6075013,
                -34.895037
              ],
              [
                -57.6012263,
                -34.9112691
              ],
              [
                -57.5987675,
                -34.9281836
              ],
              [
                -57.6002151,
                -34.9451772
              ],
              [
                -57.6055198,
                -34.9616431
              ],
              [
                -57.6144942,
                -34.9769931
              ],
              [
                -57.6268196,
                -34.9906787
              ],
              [
                -57.6709441,
                -35.031021
              ],
              [
                -57.6720813,
                -35.032044
              ],
              [
                -57.8138075,
                -35.1573118
              ],
              [
                -57.813498,
                -35.1575592
              ],
              [
                -57.7996042,
                -35.1710887
              ],
              [
                -57.7891921,
                -35.1865851
              ],
              [
                -57.7826645,
                -35.2034524
              ],
              [
                -57.7802749,
                -35.2210414
              ],
              [
                -57.7821181,
                -35.2386745
              ],
              [
                -57.7881258,
                -35.2556723
              ],
              [
                -57.7980688,
                -35.2713792
              ],
              [
                -57.8115655,
                -35.2851892
              ],
              [
                -57.957263,
                -35.4071397
              ],
              [
                -57.9731692,
                -35.4181217
              ],
              [
                -57.9913185,
                -35.4264559
              ],
              [
                -58.0000721,
                -35.4288452
              ],
              [
                -58.056533,
                -35.4805131
              ],
              [
                -58.0728101,
                -35.4926849
              ],
              [
                -58.0917286,
                -35.50196
              ],
              [
                -58.1125297,
                -35.5079661
              ],
              [
                -58.1343783,
                -35.5104619
              ],
              [
                -58.1563971,
                -35.5093474
              ],
              [
                -58.1777016,
                -35.5046672
              ],
              [
                -58.1974366,
                -35.4966096
              ],
              [
                -58.1977085,
                -35.4964357
              ],
              [
                -58.1978752,
                -35.4964765
              ],
              [
                -58.2186471,
                -35.4981906
              ],
              [
                -58.2394412,
                -35.496668
              ],
              [
                -58.2595093,
                -35.4919634
              ],
              [
                -58.2781297,
                -35.4842462
              ],
              [
                -58.2946331,
                -35.473794
              ],
              [
                -58.3349214,
                -35.4428401
              ],
              [
                -58.3489045,
                -35.4297967
              ],
              [
                -58.3595711,
                -35.4148014
              ],
              [
                -58.3665274,
                -35.3984108
              ],
              [
                -58.3666954,
                -35.3974458
              ],
              [
                -58.415552,
                -35.3605081
              ],
              [
                -58.4151435,
                -35.3630078
              ],
              [
                -58.4162222,
                -35.3797176
              ],
              [
                -58.4210543,
                -35.395976
              ],
              [
                -58.4294753,
                -35.4112225
              ],
              [
                -58.4411967,
                -35.4249311
              ],
              [
                -58.4981708,
                -35.4798336
              ],
              [
                -58.5145847,
                -35.4926753
              ],
              [
                -58.5338733,
                -35.5024895
              ],
              [
                -58.5552161,
                -35.5088581
              ],
              [
                -58.577704,
                -35.5115099
              ],
              [
                -58.6003789,
                -35.510332
              ],
              [
                -58.6222747,
                -35.5053747
              ],
              [
                -58.6424586,
                -35.4968491
              ],
              [
                -58.6600718,
                -35.4851186
              ],
              [
                -58.70799,
                -35.4457927
              ],
              [
                -58.7149522,
                -35.4441065
              ],
              [
                -58.732989,
                -35.4365716
              ],
              [
                -58.7490314,
                -35.4264596
              ],
              [
                -58.7823134,
                -35.4011501
              ],
              [
                -58.7959075,
                -35.3886914
              ],
              [
                -58.8064564,
                -35.3743916
              ],
              [
                -58.8135988,
                -35.3587425
              ],
              [
                -58.8140665,
                -35.3565386
              ],
              [
                -58.8297816,
                -35.350041
              ],
              [
                -58.8469261,
                -35.3390015
              ],
              [
                -58.9710074,
                -35.2411331
              ],
              [
                -58.9848885,
                -35.2277923
              ],
              [
                -58.9953534,
                -35.2124973
              ],
              [
                -59.0020073,
                -35.1958282
              ],
              [
                -59.0046002,
                -35.1784168
              ],
              [
                -59.0041274,
                -35.1731273
              ],
              [
                -59.0091235,
                -35.1692802
              ],
              [
                -59.0898611,
                -35.1069972
              ],
              [
                -59.1039317,
                -35.0937796
              ],
              [
                -59.1146123,
                -35.0785696
              ],
              [
                -59.1214989,
                -35.0619453
              ],
              [
                -59.1242694,
                -35.0449237
              ],
              [
                -59.292317,
                -34.919252
              ],
              [
                -59.3061003,
                -34.9067844
              ],
              [
                -59.3168191,
                -34.8924192
              ],
              [
                -59.3240993,
                -34.8766599
              ],
              [
                -59.3276881,
                -34.8600588
              ],
              [
                -59.3274618,
                -34.8431973
              ],
              [
                -59.3234307,
                -34.8266655
              ],
              [
                -59.3157381,
                -34.8110417
              ],
              [
                -59.3046547,
                -34.796872
              ],
              [
                -59.3018433,
                -34.7939241
              ],
              [
                -59.3480183,
                -34.7339198
              ],
              [
                -59.3574958,
                -34.7184939
              ],
              [
                -59.363227,
                -34.701857
              ],
              [
                -59.3649731,
                -34.6849121
              ],
              [
                -59.3730783,
                -34.6744439
              ],
              [
                -59.3828661,
                -34.6585108
              ],
              [
                -59.3886547,
                -34.6412951
              ],
              [
                -59.3902188,
                -34.6234739
              ],
              [
                -59.3893116,
                -34.6175607
              ],
              [
                -59.4334432,
                -34.55263
              ],
              [
                -59.4418544,
                -34.5368855
              ],
              [
                -59.4464923,
                -34.5201047
              ],
              [
                -59.44719,
                -34.5029001
              ],
              [
                -59.4439246,
                -34.4858995
              ],
              [
                -59.4368173,
                -34.4697226
              ],
              [
                -59.4261292,
                -34.4549588
              ],
              [
                -59.4122514,
                -34.4421459
              ],
              [
                -59.3956901,
                -34.4317503
              ],
              [
                -59.3474334,
                -34.4070645
              ],
              [
                -59.3473864,
                -34.4035884
              ],
              [
                -59.3427009,
                -34.3857809
              ],
              [
                -59.3819926,
                -34.3571911
              ],
              [
                -59.3969962,
                -34.3437983
              ],
              [
                -59.4084284,
                -34.3281689
              ],
              [
                -59.4104246,
                -34.3235189
              ],
              [
                -59.416727,
                -34.3213572
              ],
              [
                -59.43534,
                -34.3131322
              ],
              [
                -59.4516827,
                -34.302076
              ],
              [
                -59.4651387,
                -34.2886063
              ],
              [
                -59.4752014,
                -34.2732318
              ],
              [
                -59.4814932,
                -34.2565327
              ],
              [
                -59.483779,
                -34.2391389
              ],
              [
                -59.481975,
                -34.221706
              ],
              [
                -59.4732653,
                -34.1825795
              ],
              [
                -59.4672533,
                -34.1653602
              ],
              [
                -59.457263,
                -34.1494698
              ],
              [
                -59.443691,
                -34.1355364
              ],
              [
                -59.4017965,
                -34.1003204
              ],
              [
                -59.4014123,
                -34.1000486
              ],
              [
                -59.4063129,
                -34.0898058
              ],
              [
                -59.4101566,
                -34.073984
              ],
              [
                -59.4145703,
                -34.0406497
              ],
              [
                -59.4481936,
                -33.9671567
              ],
              [
                -59.4538236,
                -33.9497988
              ],
              [
                -59.455206,
                -33.9318551
              ],
              [
                -59.4522884,
                -33.9140396
              ],
              [
                -59.4451896,
                -33.8970609
              ],
              [
                -59.4341939,
                -33.8815941
              ],
              [
                -59.4197402,
                -33.8682534
              ],
              [
                -59.4082438,
                -33.8611688
              ]
            ]
          ]
        ]
      },
      "properties": {
        "srid": 4326,
        "nombre": "AMBA + margen de 10 km",
        "definicion": "CABA y 40 municipios según argentina.gob.ar/dami/centro/amba",
        "margen_metros": 10000,
        "fuente_geometrias": "API GeoRef / IGN"
      }
    }
  ]
}
